CCSDS_OMM_VERS = 2.0
CREATION_DATE  = 
ORIGINATOR     = 

OBJECT_NAME    = ALOS (DAICHI)
OBJECT_ID      = 2006-002A
CENTER_NAME    = EARTH
REF_FRAME      = TEME
TIME_SYSTEM    = UTC
MEAN_ELEMENT_THEORY = SGP/SGP4

EPOCH          = 2025-12-17T17:37:14.152512
MEAN_MOTION    = 14.69501788
ECCENTRICITY   = .00013612
INCLINATION    = 98.1098
RA_OF_ASC_NODE = 303.1864
ARG_OF_PERICENTER = 113.5739
MEAN_ANOMALY   = 246.5610

EPHEMERIS_TYPE = 0
CLASSIFICATION_TYPE = U
NORAD_CAT_ID   = 28931
ELEMENT_SET_NO = 999
REV_AT_EPOCH   = 6144
BSTAR          = .19545051E-3
MEAN_MOTION_DOT = .111E-4
MEAN_MOTION_DDOT = 0

CCSDS_OMM_VERS = 2.0
CREATION_DATE  = 
ORIGINATOR     = 

OBJECT_NAME    = H-2A R/B
OBJECT_ID      = 2006-002B
CENTER_NAME    = EARTH
REF_FRAME      = TEME
TIME_SYSTEM    = UTC
MEAN_ELEMENT_THEORY = SGP/SGP4

EPOCH          = 2025-12-26T22:08:13.178400
MEAN_MOTION    = 15.14856454
ECCENTRICITY   = .00548514
INCLINATION    = 98.2327
RA_OF_ASC_NODE = 136.8326
ARG_OF_PERICENTER = 128.4870
MEAN_ANOMALY   = 232.1298

EPHEMERIS_TYPE = 0
CLASSIFICATION_TYPE = U
NORAD_CAT_ID   = 28932
ELEMENT_SET_NO = 999
REV_AT_EPOCH   = 8341
BSTAR          = .62039511E-3
MEAN_MOTION_DOT = .11912E-3
MEAN_MOTION_DDOT = 0

CCSDS_OMM_VERS = 2.0
CREATION_DATE  = 
ORIGINATOR     = 

OBJECT_NAME    = RESURS-DK 1
OBJECT_ID      = 2006-021A
CENTER_NAME    = EARTH
REF_FRAME      = TEME
TIME_SYSTEM    = UTC
MEAN_ELEMENT_THEORY = SGP/SGP4

EPOCH          = 2025-12-26T22:04:34.255488
MEAN_MOTION    = 15.12241224
ECCENTRICITY   = .00069617
INCLINATION    = 69.9337
RA_OF_ASC_NODE = 65.1898
ARG_OF_PERICENTER = 246.3572
MEAN_ANOMALY   = 113.6863

EPHEMERIS_TYPE = 0
CLASSIFICATION_TYPE = U
NORAD_CAT_ID   = 29228
ELEMENT_SET_NO = 999
REV_AT_EPOCH   = 7652
BSTAR          = .19994941E-3
MEAN_MOTION_DOT = .3359E-4
MEAN_MOTION_DDOT = 0

CCSDS_OMM_VERS = 2.0
CREATION_DATE  = 
ORIGINATOR     = 

OBJECT_NAME    = CZ-4B R/B
OBJECT_ID      = 2006-046C
CENTER_NAME    = EARTH
REF_FRAME      = TEME
TIME_SYSTEM    = UTC
MEAN_ELEMENT_THEORY = SGP/SGP4

EPOCH          = 2025-12-26T15:08:17.365056
MEAN_MOTION    = 15.16008786
ECCENTRICITY   = .00344924
INCLINATION    = 97.5713
RA_OF_ASC_NODE = 40.7310
ARG_OF_PERICENTER = 158.2453
MEAN_ANOMALY   = 202.0254

EPHEMERIS_TYPE = 0
CLASSIFICATION_TYPE = U
NORAD_CAT_ID   = 29507
ELEMENT_SET_NO = 999
REV_AT_EPOCH   = 4897
BSTAR          = .25159406E-3
MEAN_MOTION_DOT = .4836E-4
MEAN_MOTION_DDOT = 0

CCSDS_OMM_VERS = 2.0
CREATION_DATE  = 
ORIGINATOR     = 

OBJECT_NAME    = CZ-2C R/B
OBJECT_ID      = 2007-010B
CENTER_NAME    = EARTH
REF_FRAME      = TEME
TIME_SYSTEM    = UTC
MEAN_ELEMENT_THEORY = SGP/SGP4

EPOCH          = 2025-12-26T21:06:42.677568
MEAN_MOTION    = 14.20215640
ECCENTRICITY   = .00596849
INCLINATION    = 98.3975
RA_OF_ASC_NODE = 112.8190
ARG_OF_PERICENTER = 145.1086
MEAN_ANOMALY   = 215.4027

EPHEMERIS_TYPE = 0
CLASSIFICATION_TYPE = U
NORAD_CAT_ID   = 31114
ELEMENT_SET_NO = 999
REV_AT_EPOCH   = 96938
BSTAR          = .10366144E-3
MEAN_MOTION_DOT = .185E-5
MEAN_MOTION_DDOT = 0

CCSDS_OMM_VERS = 2.0
CREATION_DATE  = 
ORIGINATOR     = 

OBJECT_NAME    = COSMO-SKYMED 1
OBJECT_ID      = 2007-023A
CENTER_NAME    = EARTH
REF_FRAME      = TEME
TIME_SYSTEM    = UTC
MEAN_ELEMENT_THEORY = SGP/SGP4

EPOCH          = 2025-12-26T23:16:29.406720
MEAN_MOTION    = 14.95870779
ECCENTRICITY   = .00011153
INCLINATION    = 97.8838
RA_OF_ASC_NODE = 186.4631
ARG_OF_PERICENTER = 77.4605
MEAN_ANOMALY   = 282.6740

EPHEMERIS_TYPE = 0
CLASSIFICATION_TYPE = U
NORAD_CAT_ID   = 31598
ELEMENT_SET_NO = 999
REV_AT_EPOCH   = 403
BSTAR          = .36427741E-3
MEAN_MOTION_DOT = .4014E-4
MEAN_MOTION_DDOT = 0

CCSDS_OMM_VERS = 2.0
CREATION_DATE  = 
ORIGINATOR     = 

OBJECT_NAME    = COSMOS 2428
OBJECT_ID      = 2007-029A
CENTER_NAME    = EARTH
REF_FRAME      = TEME
TIME_SYSTEM    = UTC
MEAN_ELEMENT_THEORY = SGP/SGP4

EPOCH          = 2025-12-26T23:14:56.452416
MEAN_MOTION    = 14.12896024
ECCENTRICITY   = .00044827
INCLINATION    = 70.9369
RA_OF_ASC_NODE = 356.0041
ARG_OF_PERICENTER = 3.7648
MEAN_ANOMALY   = 356.3506

EPHEMERIS_TYPE = 0
CLASSIFICATION_TYPE = U
NORAD_CAT_ID   = 31792
ELEMENT_SET_NO = 999
REV_AT_EPOCH   = 95382
BSTAR          = .16296907E-3
MEAN_MOTION_DOT = .256E-5
MEAN_MOTION_DDOT = 0

CCSDS_OMM_VERS = 2.0
CREATION_DATE  = 
ORIGINATOR     = 

OBJECT_NAME    = SL-16 R/B
OBJECT_ID      = 2007-029B
CENTER_NAME    = EARTH
REF_FRAME      = TEME
TIME_SYSTEM    = UTC
MEAN_ELEMENT_THEORY = SGP/SGP4

EPOCH          = 2025-12-26T22:53:18.360672
MEAN_MOTION    = 14.14820013
ECCENTRICITY   = .00018885
INCLINATION    = 70.9766
RA_OF_ASC_NODE = 325.2781
ARG_OF_PERICENTER = 266.6736
MEAN_ANOMALY   = 153.9211

EPHEMERIS_TYPE = 0
CLASSIFICATION_TYPE = U
NORAD_CAT_ID   = 31793
ELEMENT_SET_NO = 999
REV_AT_EPOCH   = 95508
BSTAR          = .17836573E-3
MEAN_MOTION_DOT = .296E-5
MEAN_MOTION_DDOT = 0

CCSDS_OMM_VERS = 2.0
CREATION_DATE  = 
ORIGINATOR     = 

OBJECT_NAME    = KORONAS-FOTON
OBJECT_ID      = 2009-003A
CENTER_NAME    = EARTH
REF_FRAME      = TEME
TIME_SYSTEM    = UTC
MEAN_ELEMENT_THEORY = SGP/SGP4

EPOCH          = 2025-12-26T23:19:50.805120
MEAN_MOTION    = 15.41465225
ECCENTRICITY   = .00132128
INCLINATION    = 82.4311
RA_OF_ASC_NODE = 351.3543
ARG_OF_PERICENTER = 64.3050
MEAN_ANOMALY   = 295.9559

EPHEMERIS_TYPE = 0
CLASSIFICATION_TYPE = U
NORAD_CAT_ID   = 33504
ELEMENT_SET_NO = 999
REV_AT_EPOCH   = 93453
BSTAR          = .23010239E-3
MEAN_MOTION_DOT = .97E-4
MEAN_MOTION_DDOT = 0

CCSDS_OMM_VERS = 2.0
CREATION_DATE  = 
ORIGINATOR     = 

OBJECT_NAME    = CZ-2C R/B
OBJECT_ID      = 2011-030B
CENTER_NAME    = EARTH
REF_FRAME      = TEME
TIME_SYSTEM    = UTC
MEAN_ELEMENT_THEORY = SGP/SGP4

EPOCH          = 2025-12-26T20:22:29.762112
MEAN_MOTION    = 14.80944132
ECCENTRICITY   = .00516328
INCLINATION    = 97.8433
RA_OF_ASC_NODE = 314.6450
ARG_OF_PERICENTER = 226.4325
MEAN_ANOMALY   = 187.5192

EPHEMERIS_TYPE = 0
CLASSIFICATION_TYPE = U
NORAD_CAT_ID   = 37731
ELEMENT_SET_NO = 999
REV_AT_EPOCH   = 77931
BSTAR          = .19156591E-3
MEAN_MOTION_DOT = .1461E-4
MEAN_MOTION_DDOT = 0

CCSDS_OMM_VERS = 2.0
CREATION_DATE  = 
ORIGINATOR     = 

OBJECT_NAME    = H-2A R/B
OBJECT_ID      = 2012-025E
CENTER_NAME    = EARTH
REF_FRAME      = TEME
TIME_SYSTEM    = UTC
MEAN_ELEMENT_THEORY = SGP/SGP4

EPOCH          = 2025-12-26T21:37:07.963104
MEAN_MOTION    = 14.94535751
ECCENTRICITY   = .00446804
INCLINATION    = 98.4617
RA_OF_ASC_NODE = 317.2249
ARG_OF_PERICENTER = 188.7483
MEAN_ANOMALY   = 171.2962

EPHEMERIS_TYPE = 0
CLASSIFICATION_TYPE = U
NORAD_CAT_ID   = 38341
ELEMENT_SET_NO = 999
REV_AT_EPOCH   = 73734
BSTAR          = .39858555E-3
MEAN_MOTION_DOT = .4324E-4
MEAN_MOTION_DDOT = 0

CCSDS_OMM_VERS = 2.0
CREATION_DATE  = 
ORIGINATOR     = 

OBJECT_NAME    = SHIJIAN-16 (SJ-16)
OBJECT_ID      = 2013-057A
CENTER_NAME    = EARTH
REF_FRAME      = TEME
TIME_SYSTEM    = UTC
MEAN_ELEMENT_THEORY = SGP/SGP4

EPOCH          = 2025-12-26T22:50:44.089152
MEAN_MOTION    = 14.92028942
ECCENTRICITY   = .00179878
INCLINATION    = 74.9739
RA_OF_ASC_NODE = 322.7619
ARG_OF_PERICENTER = 287.1797
MEAN_ANOMALY   = 72.7421

EPHEMERIS_TYPE = 0
CLASSIFICATION_TYPE = U
NORAD_CAT_ID   = 39358
ELEMENT_SET_NO = 999
REV_AT_EPOCH   = 66065
BSTAR          = .20670492E-3
MEAN_MOTION_DOT = .2074E-4
MEAN_MOTION_DDOT = 0

