ALOS (DAICHI)           
1 28931U 06002A   25351.73419158  .00001110  00000+0  19545-3 0  9994
2 28931  98.1098 303.1864 0001361 113.5739 246.5610 14.69501788 61443
H-2A R/B                
1 28932U 06002B   25360.92237475  .00011912  00000+0  62040-3 0  9995
2 28932  98.2327 136.8326 0054851 128.4870 232.1298 15.14856454 83415
RESURS-DK 1             
1 29228U 06021A   25360.91984092  .00003359  00000+0  19995-3 0  9995
2 29228  69.9337  65.1898 0006961 246.3572 113.6863 15.12241224 76522
CZ-4B R/B               
1 29507U 06046C   25360.63075654  .00004836  00000+0  25159-3 0  9996
2 29507  97.5713  40.7310 0034492 158.2453 202.0254 15.16008786 48977
CZ-2C R/B               
1 31114U 07010B   25360.87966062  .00000185  00000+0  10366-3 0  9990
2 31114  98.3975 112.8190 0059684 145.1086 215.4027 14.20215640969383
COSMO-SKYMED 1          
1 31598U 07023A   25360.96978480  .00004014  00000+0  36428-3 0  9999
2 31598  97.8838 186.4631 0001115  77.4605 282.6740 14.95870779  4030
COSMOS 2428             
1 31792U 07029A   25360.96870894  .00000256  00000+0  16297-3 0  9997
2 31792  70.9369 356.0041 0004482   3.7648 356.3506 14.12896024953825
SL-16 R/B               
1 31793U 07029B   25360.95368473  .00000296  00000+0  17837-3 0  9997
2 31793  70.9766 325.2781 0001888 266.6736 153.9211 14.14820013955082
KORONAS-FOTON           
1 33504U 09003A   25360.97211580  .00009700  00000+0  23010-3 0  9990
2 33504  82.4311 351.3543 0013212  64.3050 295.9559 15.41465225934530
CZ-2C R/B               
1 37731U 11030B   25360.84895558  .00001461  00000+0  19157-3 0  9991
2 37731  97.8433 314.6450 0051632 226.4325 187.5192 14.80944132779317
H-2A R/B                
1 38341U 12025E   25360.90078661  .00004324  00000+0  39859-3 0  9991
2 38341  98.4617 317.2249 0044680 188.7483 171.2962 14.94535751737341
SHIJIAN-16 (SJ-16)      
1 39358U 13057A   25360.95189918  .00002074  00000+0  20670-3 0  9990
2 39358  74.9739 322.7619 0017987 287.1797  72.7421 14.92028942660659
